{
"type": "FeatureCollection",
"name": "responses enriched with points",
"crs": { "type": "name", "properties": { "name": "urn:ogc:def:crs:OGC:1.3:CRS84" } },
"xy_coordinate_resolution": 1e-15,
"features": [
{ "type": "Feature", "properties": { "ID": 1, "Start time": "2026-02-25", "Completion time": "2026-02-25", "Email": "jmacmart@calpoly.edu", "Name": "Jennifer MacMartin", "Last modified time": null, "What is the Name of Your 'Maker Space' or hands-on resource center?": "ASI Craft Center", "You are receiving this form because you help operate a 'maker space' on campus. \n\nDo you grant permission for us to share the information you provide in a public-facing database?": "Yes, you have permission to share our resources publicly", "Where can people find out more about your space? (website, Instagram, etc) Please provide links to these locations to be included on the map": "https://www.asi.calpoly.edu/experience/craft-center/", "Where is your space located? Please provide the building and room number": "65-111", "Please provide a short description of your space (~100 words or less; we may edit it for brevity)": "A place for beginner crafters and experienced designers to create memorable works in a variety of mediums. We provide the classes, tools, and space to inspire your passion projects. We offer quarterly studio passes, 6-week classes, and one-day workshops.", "Who can we list as the person to contact for inquires about your space? Please provide the name and cal poly email of that individual. \n\nIf your website states this information clearly, we will ta...": "Jennifer MacMartin / jmacmart@calpoly.edu", "Is your space affiliated with a college or department? If so, which one?": "No, we are an extracurricular program through ASI", "Who is allowed to access and use your space? Are there limits by major or department?": "Active Cal Poly students, faculty and staff. However, we do not currently have walk-ins for most of our studio spaces; you must register on a quarter-to-quarter basis.", "Are there regular hours for your space?\n": "Yes, they are set quarterly;", "If you hours are stated clearly on your website or social media, we will copy those. \nPlease write any comments you want to share about your opening hours here:": "This academic year, our hours are M-F 10am-8pm, and Sat/Sun 10am-6pm, although these hours will be changing/expanding with semester conversion.", "What service(s) do you provide? Select all that apply, this will help viewers filter for relevant activities": "Repair or Maintenance (bike, surfboard, etc);Studios in sewing, ceramics, glass, and surfboard shaping. Classes/workshops in all of the above, plus jewelry making, leatherworking, painting, stamp making, cyanotype.;", "How is the use of your space or services priced?": "students pay per class or workshop", "Is there a mandatory class or training that students must take to use your space?": "Yes, other training", "CENG Machine Shop: Should we link students to https://machineshops.calpoly.edu/red-tags/ for more information?\nCAED Support Shop: I could not find a link to red-tag training, where can students go...": null, "If you have a required training, What is the nature of that training? How can student register for the training? When is the training offered?": "Depends - studio passes require a safety orientation training renewed on an annual basis. Craft Center Coordinator reaches out after successful registration. Currently offered weeks 2 of the quarter, although this will change in semesters.", "Please provide an image to feature in the listing. (ex: students using the space or a photos of equipment available) \n\nIf you prefer, we can come take photos or you can email your photos to Joshua...": "https://cpslo.sharepoint.com/sites/KennedyLibraryDataGISPeerAssistants/Shared%20Documents/Apps/Microsoft%20Forms/Cal%20Poly%20Campus%20Maker%20spaces%20and%20Hands-on%20Resource/Question/CR_Clay-Wheel_WI24-47_Jennifer%20MacMartin.JPG", "Does 'Maker space' accurately describe the service you provide? Is there a better general descriptor for your space?\nDo you have any other comments about this database-making and mapping effort?": "We are less drop-in than other makerspaces, and we don't have a lot of the disciplines others have (woodworking, electronics, 3D printers, etc)... It's really more of a crafting community space, but we have some overlap. We operate on a per-term basis (for now, quarters, and later, semesters) and currently don't function offering daily passes or drop-ins to use tools unless registered for the quarter.", "For future communications about this mapping project, who can we contact? Please provide cal poly email here:": "jmacmart@calpoly.edu", "x": -120.65884084724961, "y": 35.300408487078002 }, "geometry": { "type": "Point", "coordinates": [ -120.658840847249607, 35.300408487078002 ] } },
{ "type": "Feature", "properties": { "ID": 2, "Start time": "2026-02-25", "Completion time": "2026-02-25", "Email": "dkempken@calpoly.edu", "Name": "David Kempken", "Last modified time": null, "What is the Name of Your 'Maker Space' or hands-on resource center?": "CAED Support Shop", "You are receiving this form because you help operate a 'maker space' on campus. \n\nDo you grant permission for us to share the information you provide in a public-facing database?": "Maybe, I would like to learn more about how this information is shared first", "Where can people find out more about your space? (website, Instagram, etc) Please provide links to these locations to be included on the map": "https://caed.calpoly.edu/content/facilities/shop", "Where is your space located? Please provide the building and room number": "Bldg.21-136", "Please provide a short description of your space (~100 words or less; we may edit it for brevity)": "The CAED Support Shop includes various tools and equipment in support of class and lab activities within the CAED. These include but are not limited to: wood-shop, sheetmetal shop, metal fabrication areas, bronze and aluminum foundry, manual machine tools, CNC plasma cutter and routers, as well as various hand tools.", "Who can we list as the person to contact for inquires about your space? Please provide the name and cal poly email of that individual. \n\nIf your website states this information clearly, we will ta...": "David Kempken  dkempken@calpoly.edu", "Is your space affiliated with a college or department? If so, which one?": "Yes, CAED", "Who is allowed to access and use your space? Are there limits by major or department?": "Students currently enrolled in courses in the CAED", "Are there regular hours for your space?\n": "Yes, they are set annually;", "If you hours are stated clearly on your website or social media, we will copy those. \nPlease write any comments you want to share about your opening hours here:": "Monday-Friday 9am-5:30pm\nFriday 9am-5pm", "What service(s) do you provide? Select all that apply, this will help viewers filter for relevant activities": "Wood Shop or Machine Shop;see above;", "How is the use of your space or services priced?": "free, but students must provide their own materials", "Is there a mandatory class or training that students must take to use your space?": "Yes, other training", "CENG Machine Shop: Should we link students to https://machineshops.calpoly.edu/red-tags/ for more information?\nCAED Support Shop: I could not find a link to red-tag training, where can students go...": null, "If you have a required training, What is the nature of that training? How can student register for the training? When is the training offered?": "We have three separate safety training modules the first in the series is in the wood-shop. We also have a metal shop module and a welding module.\nEach module consists of hand-on, scripted training for each tool or piece of equipment and a written test and signed user agreement.\nTraining is typically scheduled/coordinated with faculty or faculty advisors within classes and or groups.", "Please provide an image to feature in the listing. (ex: students using the space or a photos of equipment available) \n\nIf you prefer, we can come take photos or you can email your photos to Joshua...": null, "Does 'Maker space' accurately describe the service you provide? Is there a better general descriptor for your space?\nDo you have any other comments about this database-making and mapping effort?": "Editorial answer....I think the term \"Maker space\" has, to some degree, become synonymous with spaces dedicated to processes like 3D printing and laser cutting etc. The CAED Support Shop is a shop space that has multiple equipment/tools that fall well outside of that general vernacular. ie: wood-shop, metal fabrication, foundry, manual and CNC tools etc.\nI think our name CAED Support Shop is the best descriptor we have come up with thus far.\n", "For future communications about this mapping project, who can we contact? Please provide cal poly email here:": "dkempken@calpoly.edu", "x": -120.66340980209699, "y": 35.299970776927957 }, "geometry": { "type": "Point", "coordinates": [ -120.663409802096993, 35.299970776927957 ] } },
{ "type": "Feature", "properties": { "ID": 3, "Start time": "2026-02-25", "Completion time": "2026-02-25", "Email": "dkempken@calpoly.edu", "Name": "David Kempken", "Last modified time": null, "What is the Name of Your 'Maker Space' or hands-on resource center?": "CAED dFab lab", "You are receiving this form because you help operate a 'maker space' on campus. \n\nDo you grant permission for us to share the information you provide in a public-facing database?": "Maybe, I would like to learn more about how this information is shared first", "Where can people find out more about your space? (website, Instagram, etc) Please provide links to these locations to be included on the map": "https://dfab.calpoly.edu", "Where is your space located? Please provide the building and room number": "Bldg.187-mezzanine", "Please provide a short description of your space (~100 words or less; we may edit it for brevity)": "The CAED dFab lab houses nine laser cutters, multiple FDM 3D printers, two desktop CNC mills, vinyl cutter, sewing machines, and computer workstations.", "Who can we list as the person to contact for inquires about your space? Please provide the name and cal poly email of that individual. \n\nIf your website states this information clearly, we will ta...": "David Kempken. dkempken@calpoly.edu", "Is your space affiliated with a college or department? If so, which one?": "Yes, CAED", "Who is allowed to access and use your space? Are there limits by major or department?": "Students currently enrolled in coursework in the CAED.", "Are there regular hours for your space?\n": "Yes, they are set annually;", "If you hours are stated clearly on your website or social media, we will copy those. \nPlease write any comments you want to share about your opening hours here:": "Hours on website are not accurate.\nCurrent dFab hours are:\nMonday-Friday 10am-6pm", "What service(s) do you provide? Select all that apply, this will help viewers filter for relevant activities": "3D Printing;Computer Lab with Specialized Software;Laser Cutting and CNC;", "How is the use of your space or services priced?": "laser cutting is free but students provide materials, 3D printing and CNC milling are charged based on material use and time on tool respectively.", "Is there a mandatory class or training that students must take to use your space?": "No", "CENG Machine Shop: Should we link students to https://machineshops.calpoly.edu/red-tags/ for more information?\nCAED Support Shop: I could not find a link to red-tag training, where can students go...": null, "If you have a required training, What is the nature of that training? How can student register for the training? When is the training offered?": null, "Please provide an image to feature in the listing. (ex: students using the space or a photos of equipment available) \n\nIf you prefer, we can come take photos or you can email your photos to Joshua...": null, "Does 'Maker space' accurately describe the service you provide? Is there a better general descriptor for your space?\nDo you have any other comments about this database-making and mapping effort?": "Yes.", "For future communications about this mapping project, who can we contact? Please provide cal poly email here:": "dkempken@calpoly.edu", "x": -120.6624422403808, "y": 35.299481265108788 }, "geometry": { "type": "Point", "coordinates": [ -120.662442240380798, 35.299481265108788 ] } },
{ "type": "Feature", "properties": { "ID": 4, "Start time": "2026-02-25", "Completion time": "2026-02-25", "Email": "rjbaker@calpoly.edu", "Name": "Rory Baker", "Last modified time": null, "What is the Name of Your 'Maker Space' or hands-on resource center?": "Mustang Makerspace", "You are receiving this form because you help operate a 'maker space' on campus. \n\nDo you grant permission for us to share the information you provide in a public-facing database?": "Yes, you have permission to share our resources publicly", "Where can people find out more about your space? (website, Instagram, etc) Please provide links to these locations to be included on the map": "https://machineshops.calpoly.edu/\n", "Where is your space located? Please provide the building and room number": "room 110- building 197", "Please provide a short description of your space (~100 words or less; we may edit it for brevity)": "A walk up digital fabrication and hands-on building resource for Cal Poly ", "Who can we list as the person to contact for inquires about your space? Please provide the name and cal poly email of that individual. \n\nIf your website states this information clearly, we will ta...": "rjbaker@calpoly.edu", "Is your space affiliated with a college or department? If so, which one?": "No", "Who is allowed to access and use your space? Are there limits by major or department?": "Students, staff and Faculty ", "Are there regular hours for your space?\n": "Yes, they are set annually;", "If you hours are stated clearly on your website or social media, we will copy those. \nPlease write any comments you want to share about your opening hours here:": " M-F 10-7, Sat 10-2", "What service(s) do you provide? Select all that apply, this will help viewers filter for relevant activities": "3D Printing;Laser Cutting and CNC;Plotting/Printing;sewing;", "How is the use of your space or services priced?": "Equipment is free to use, but materials must be provided", "Is there a mandatory class or training that students must take to use your space?": "No", "CENG Machine Shop: Should we link students to https://machineshops.calpoly.edu/red-tags/ for more information?\nCAED Support Shop: I could not find a link to red-tag training, where can students go...": null, "If you have a required training, What is the nature of that training? How can student register for the training? When is the training offered?": null, "Please provide an image to feature in the listing. (ex: students using the space or a photos of equipment available) \n\nIf you prefer, we can come take photos or you can email your photos to Joshua...": null, "Does 'Maker space' accurately describe the service you provide? Is there a better general descriptor for your space?\nDo you have any other comments about this database-making and mapping effort?": "Yes, I also typically see it written Makerspace. \nI’d be interested to see how broadly you define “Makerspace” in terms of the types of shop spaces included. There are many shops on campus with varying levels of access and focus. Some have strict access requirements, while others are more open; some are broad in scope, and others are highly specialized.\n\nFor example, the art shops are excellent general resources, but access is limited to students enrolled in art courses. There are also spaces like the Rose Float shop that have a wide range of tools but are centered around a singular specific goal. The Shakespeare press is open to everyone but only does printing. In contrast, senior project labs and research spaces often house highly specialized equipment tailored to particular projects or materials. \n\nI’m looking forward to seeing how you approach this.", "For future communications about this mapping project, who can we contact? Please provide cal poly email here:": "rjbaker@calpoly.edu", "x": -120.6643150999698, "y": 35.302373967566488 }, "geometry": { "type": "Point", "coordinates": [ -120.664315099969798, 35.302373967566488 ] } },
{ "type": "Feature", "properties": { "ID": 5, "Start time": "2026-02-25", "Completion time": "2026-02-25", "Email": "ctrudell@calpoly.edu", "Name": "Carmen Trudell", "Last modified time": null, "What is the Name of Your 'Maker Space' or hands-on resource center?": "CAED Plot Center", "You are receiving this form because you help operate a 'maker space' on campus. \n\nDo you grant permission for us to share the information you provide in a public-facing database?": "Yes, you have permission to share our resources publicly", "Where can people find out more about your space? (website, Instagram, etc) Please provide links to these locations to be included on the map": "https://caed.calpoly.edu/plotting", "Where is your space located? Please provide the building and room number": "21-131A", "Please provide a short description of your space (~100 words or less; we may edit it for brevity)": "We offer affordable and easy-access large-format plotting and scanning on campus. We have three Cannon plotters that can produce high-quality full-color plots up to 42\" wide. We also have a KIP plotter that is well suited to draft plots.", "Who can we list as the person to contact for inquires about your space? Please provide the name and cal poly email of that individual. \n\nIf your website states this information clearly, we will ta...": "Carmen Trudell, ctrudell@calpoly.edu", "Is your space affiliated with a college or department? If so, which one?": "College of Architecture and Environmental Design", "Who is allowed to access and use your space? Are there limits by major or department?": "Anyone who has a PolyCard and Campus Express account. Campus Express is required to pay for plotting and scanning.", "Are there regular hours for your space?\n": "No, they change from week to week;We host students by appointment or class registration;", "If you hours are stated clearly on your website or social media, we will copy those. \nPlease write any comments you want to share about your opening hours here:": "Instructors can email ctrudell@calpoly.edu to arrange for open hours as needed. At this time, the CAED Plot Center has targeted open hours to align with demand.", "What service(s) do you provide? Select all that apply, this will help viewers filter for relevant activities": "Plotting/Printing;", "How is the use of your space or services priced?": "a standard material rate ($/lbs or $/sqft rate)", "Is there a mandatory class or training that students must take to use your space?": "No", "CENG Machine Shop: Should we link students to https://machineshops.calpoly.edu/red-tags/ for more information?\nCAED Support Shop: I could not find a link to red-tag training, where can students go...": null, "If you have a required training, What is the nature of that training? How can student register for the training? When is the training offered?": null, "Please provide an image to feature in the listing. (ex: students using the space or a photos of equipment available) \n\nIf you prefer, we can come take photos or you can email your photos to Joshua...": null, "Does 'Maker space' accurately describe the service you provide? Is there a better general descriptor for your space?\nDo you have any other comments about this database-making and mapping effort?": "No. Plotting/Printer center is more accurate.", "For future communications about this mapping project, who can we contact? Please provide cal poly email here:": "ctrudell@calpoly.edu", "x": -120.6628471242292, "y": 35.299681741792227 }, "geometry": { "type": "Point", "coordinates": [ -120.662847124229202, 35.299681741792227 ] } },
{ "type": "Feature", "properties": { "ID": 6, "Start time": "2026-02-25", "Completion time": "2026-03-02", "Email": "mhowar29@calpoly.edu", "Name": "Maddie Howard", "Last modified time": null, "What is the Name of Your 'Maker Space' or hands-on resource center?": "Mustang '60 Machine Shop", "You are receiving this form because you help operate a 'maker space' on campus. \n\nDo you grant permission for us to share the information you provide in a public-facing database?": "Yes, you have permission to share our resources publicly", "Where can people find out more about your space? (website, Instagram, etc) Please provide links to these locations to be included on the map": "Website: https://machineshops.calpoly.edu/ \nInstagram: @calpolyshoptechs or https://www.instagram.com/calpolyshoptechs?utm_source=ig_web_button_share_sheet&igsh=ZDNlZDc0MzIxNw== \nFacebook: @calpolymachineshops or https://www.facebook.com/calpolyshoptechs\n", "Where is your space located? Please provide the building and room number": "Bonderson (Building 197) Room 114 & 115", "Please provide a short description of your space (~100 words or less; we may edit it for brevity)": "Cal Poly College of Engineering Student Machine Shops is a collaborative and safety-conscious learning environment where students complete the cycle of design, from concept to finished product. The machine shops’ primary interest has been to expand the creative potential of Cal Poly students. From basic hand and power tools to state-of-the-art computer controlled machines, students are exposed to the myriad of processes and technologies that comprise today’s’ manufacturing and fabricating environment in a step-by-step manner. Our shops' goal is to break down barriers; where students might have once saw tools and machines as intimidating or disconnected from their own experience, they are now empowered. Both Mustang 60 and the Hangar are open to any students enrolled at Cal Poly!", "Who can we list as the person to contact for inquires about your space? Please provide the name and cal poly email of that individual. \n\nIf your website states this information clearly, we will ta...": "Shop Tech Email: calpolyshoptechs@gmail.com", "Is your space affiliated with a college or department? If so, which one?": "College of Engineering", "Who is allowed to access and use your space? Are there limits by major or department?": "All Cal Poly Students! ", "Are there regular hours for your space?\n": "Yes, they are set quarterly;Yes, they are set annually;", "If you hours are stated clearly on your website or social media, we will copy those. \nPlease write any comments you want to share about your opening hours here:": "MWF 10-6\n\n(Changes depending on Holidays or quarter schedule)", "What service(s) do you provide? Select all that apply, this will help viewers filter for relevant activities": "3D Printing;Laser Cutting and CNC;Wood Shop or Machine Shop;Soldering and Electronics;", "How is the use of your space or services priced?": "Free, students must provide their own materials but we do have some free materials/scraps available for students to use!", "Is there a mandatory class or training that students must take to use your space?": "Yes, students must take a red-tag or blue-tag certification (CENG Machine Shop/CAED Support Shop)", "CENG Machine Shop: Should we link students to https://machineshops.calpoly.edu/red-tags/ for more information?\nCAED Support Shop: I could not find a link to red-tag training, where can students go...": "CENG Machine Shop: That link works! Or just the general link (https://machineshops.calpoly.edu/) works too!", "If you have a required training, What is the nature of that training? How can student register for the training? When is the training offered?": null, "Please provide an image to feature in the listing. (ex: students using the space or a photos of equipment available) \n\nIf you prefer, we can come take photos or you can email your photos to Joshua...": null, "Does 'Maker space' accurately describe the service you provide? Is there a better general descriptor for your space?\nDo you have any other comments about this database-making and mapping effort?": "Machine shop might be a better general descriptor for the space! Also for the photos, we have so many so let me know if you are looking for something specific and I can email you lots of options!", "For future communications about this mapping project, who can we contact? Please provide cal poly email here:": "calpolyshoptechs@gmail.com", "x": -120.66416243830579, "y": 35.302452659145857 }, "geometry": { "type": "Point", "coordinates": [ -120.664162438305794, 35.302452659145857 ] } },
{ "type": "Feature", "properties": { "ID": 7, "Start time": "2026-03-02", "Completion time": "2026-03-02", "Email": "mhowar29@calpoly.edu", "Name": "Maddie Howard", "Last modified time": null, "What is the Name of Your 'Maker Space' or hands-on resource center?": "Aero Hangar Machine Shop", "You are receiving this form because you help operate a 'maker space' on campus. \n\nDo you grant permission for us to share the information you provide in a public-facing database?": "Yes, you have permission to share our resources publicly", "Where can people find out more about your space? (website, Instagram, etc) Please provide links to these locations to be included on the map": "Website: https://machineshops.calpoly.edu/ \nInstagram: @calpolyshoptechs or https://www.instagram.com/calpolyshoptechs?utm_source=ig_web_button_share_sheet&igsh=ZDNlZDc0MzIxNw== \nFacebook: @calpolymachineshops or https://www.facebook.com/calpolyshoptechs", "Where is your space located? Please provide the building and room number": "Building 04A Room 100", "Please provide a short description of your space (~100 words or less; we may edit it for brevity)": "Cal Poly College of Engineering Student Machine Shops is a collaborative and safety-conscious learning environment where students complete the cycle of design, from concept to finished product. The machine shops’ primary interest has been to expand the creative potential of Cal Poly students. From basic hand and power tools to state-of-the-art computer controlled machines, students are exposed to the myriad of processes and technologies that comprise today’s’ manufacturing and fabricating environment in a step-by-step manner. Our shops' goal is to break down barriers; where students might have once saw tools and machines as intimidating or disconnected from their own experience, they are now empowered. Both Mustang 60 and the Hangar are open to any students enrolled at Cal Poly!", "Who can we list as the person to contact for inquires about your space? Please provide the name and cal poly email of that individual. \n\nIf your website states this information clearly, we will ta...": "Shop Tech Email: calpolyshoptechs@gmail.com", "Is your space affiliated with a college or department? If so, which one?": "College of Engineering", "Who is allowed to access and use your space? Are there limits by major or department?": "All Cal Poly Students!", "Are there regular hours for your space?\n": "Yes, they are set annually;Yes, they are set quarterly;", "If you hours are stated clearly on your website or social media, we will copy those. \nPlease write any comments you want to share about your opening hours here:": "TR 10-6, Sat 9-5\n\n(Changes depending on Holidays or quarter schedule)", "What service(s) do you provide? Select all that apply, this will help viewers filter for relevant activities": "3D Printing;Laser Cutting and CNC;Wood Shop or Machine Shop;Soldering and Electronics;", "How is the use of your space or services priced?": "Free, students must provide their own materials but we do have some free materials/scraps available for students to use!", "Is there a mandatory class or training that students must take to use your space?": "Yes, students must take a red-tag or blue-tag certification (CENG Machine Shop/CAED Support Shop)", "CENG Machine Shop: Should we link students to https://machineshops.calpoly.edu/red-tags/ for more information?\nCAED Support Shop: I could not find a link to red-tag training, where can students go...": "See Mustang '60 response", "If you have a required training, What is the nature of that training? How can student register for the training? When is the training offered?": null, "Please provide an image to feature in the listing. (ex: students using the space or a photos of equipment available) \n\nIf you prefer, we can come take photos or you can email your photos to Joshua...": null, "Does 'Maker space' accurately describe the service you provide? Is there a better general descriptor for your space?\nDo you have any other comments about this database-making and mapping effort?": "Machine shop might be a better general descriptor for the space! Also for the photos, we have so many so let me know if you are looking for something specific and I can email you lots of options!\n", "For future communications about this mapping project, who can we contact? Please provide cal poly email here:": "calpolyshoptechs@gmail.com", "x": -120.664735, "y": 35.305559 }, "geometry": { "type": "Point", "coordinates": [ -120.664735, 35.305559 ] } },
{ "type": "Feature", "properties": { "ID": 8, "Start time": "2026-03-03", "Completion time": "2026-03-03", "Email": "cburns39@calpoly.edu", "Name": "Claire Burns", "Last modified time": null, "What is the Name of Your 'Maker Space' or hands-on resource center?": "Digital Projects Lab", "You are receiving this form because you help operate a 'maker space' on campus. \n\nDo you grant permission for us to share the information you provide in a public-facing database?": "Yes, you have permission to share our resources publicly", "Where can people find out more about your space? (website, Instagram, etc) Please provide links to these locations to be included on the map": "https://guides.lib.calpoly.edu/dpl", "Where is your space located? Please provide the building and room number": "Kennedy Library Digital Scholarship Studio, 35-115a", "Please provide a short description of your space (~100 words or less; we may edit it for brevity)": "The Digital Project Lab Student Peer Assistants and Specialists are now available to help with GIS & Mapping, Data Science & Stats, Graphic Design, and more. Our goal is to help students, faculty, and staff find data, apply software tools for exploration and analysis, and communicate effectively using data and design principles.", "Who can we list as the person to contact for inquires about your space? Please provide the name and cal poly email of that individual. \n\nIf your website states this information clearly, we will ta...": "lib-dss@calpoly.edu", "Is your space affiliated with a college or department? If so, which one?": "Kennedy Library", "Who is allowed to access and use your space? Are there limits by major or department?": "Everyone is welcome, including students, staff, and faculty", "Are there regular hours for your space?\n": "Yes, they are set quarterly;We host students by appointment or class registration;", "If you hours are stated clearly on your website or social media, we will copy those. \nPlease write any comments you want to share about your opening hours here:": "Visit https://guides.lib.calpoly.edu/dpl to schedule an appointment for tailored support. Walk-ins are welcome Monday-Thursday 10am-6m and Friday 10am-2pm.", "What service(s) do you provide? Select all that apply, this will help viewers filter for relevant activities": "Computer Lab with Specialized Software;Specialized consultation in GIS, data, and design;", "How is the use of your space or services priced?": "always free", "Is there a mandatory class or training that students must take to use your space?": "No", "CENG Machine Shop: Should we link students to https://machineshops.calpoly.edu/red-tags/ for more information?\nCAED Support Shop: I could not find a link to red-tag training, where can students go...": null, "If you have a required training, What is the nature of that training? How can student register for the training? When is the training offered?": null, "Please provide an image to feature in the listing. (ex: students using the space or a photos of equipment available) \n\nIf you prefer, we can come take photos or you can email your photos to Joshua...": "https://cpslo.sharepoint.com/sites/KennedyLibraryDataGISPeerAssistants/Shared%20Documents/Apps/Microsoft%20Forms/Cal%20Poly%20Campus%20Maker%20spaces%20and%20Hands-on%20Resource/Question/Screenshot%202026-03-03%20at%204.53.20%E2%80%AFPM_Claire%20Burns.png", "Does 'Maker space' accurately describe the service you provide? Is there a better general descriptor for your space?\nDo you have any other comments about this database-making and mapping effort?": "You can use Makerspace to describe our space, also research and digital project support service point. ", "For future communications about this mapping project, who can we contact? Please provide cal poly email here:": "lib-dss@calpoly.edu", "x": -120.66362576173449, "y": 35.301950606869482 }, "geometry": { "type": "Point", "coordinates": [ -120.663625761734494, 35.301950606869482 ] } }
]
}
